IXPE                    
1 49954U 21121A   24149.91668981  .00005468  00000+0  38287-3 0  9999
2 49954   0.2289 176.5771 0009631 352.0054 230.2764 14.98013679  5799
